{
  "type": "FeatureCollection",
  "features": [
    {
      "type": "Feature",
      "properties": {
        "norad_id": 66522,
        "name": "STARLINK-35946",
        "group": "last-30-days",
        "lat": 41.35472011458461,
        "lon": 95.15505436692717,
        "alt_km": 408.1028490042154,
        "timestamp": "2025-12-17T19:34:06.799516+00:00",
        "meta_object_name": "STARLINK-35946",
        "meta_object_id": "2025-265G",
        "meta_epoch": "2025-12-16T03:03:11.151360",
        "meta_mean_motion": 15.50628679,
        "meta_eccentricity": 0.00014256,
        "meta_inclination": 42.9976,
        "meta_ra_of_asc_node": 34.1834,
        "meta_arg_of_pericenter": 304.2198,
        "meta_mean_anomaly": 55.8527,
        "meta_ephemeris_type": 0,
        "meta_classification_type": "U",
        "meta_norad_cat_id": 66522,
        "meta_element_set_no": 999,
        "meta_rev_at_epoch": 428,
        "meta_bstar": 0.0011852833,
        "meta_mean_motion_dot": 0.00069941,
        "meta_mean_motion_ddot": 0,
        "tle_line1": "1 66522U 25265G   25350.12721240  .00069941  00000+0  11853-2 0  9993",
        "tle_line2": "2 66522  42.9976  34.1834 0001425 304.2198  55.8527 15.50628679  4287"
      },
      "geometry": {
        "type": "Point",
        "coordinates": [
          95.15505436692717,
          41.35472011458461
        ]
      }
    },
    {
      "type": "Feature",
      "properties": {
        "norad_id": 66523,
        "name": "STARLINK-35969",
        "group": "last-30-days",
        "lat": 41.587703082296414,
        "lon": 96.56675776741655,
        "alt_km": 409.1014224623059,
        "timestamp": "2025-12-17T19:34:06.799528+00:00",
        "meta_object_name": "STARLINK-35969",
        "meta_object_id": "2025-265H",
        "meta_epoch": "2025-12-17T03:46:47.958528",
        "meta_mean_motion": 15.50607333,
        "meta_eccentricity": 0.00015762,
        "meta_inclination": 42.9962,
        "meta_ra_of_asc_node": 28.1486,
        "meta_arg_of_pericenter": 272.7983,
        "meta_mean_anomaly": 87.2696,
        "meta_ephemeris_type": 0,
        "meta_classification_type": "U",
        "meta_norad_cat_id": 66523,
        "meta_element_set_no": 999,
        "meta_rev_at_epoch": 444,
        "meta_bstar": 0.0010242012,
        "meta_mean_motion_dot": 0.00060269,
        "meta_mean_motion_ddot": 0,
        "tle_line1": "1 66523U 25265H   25351.15749952  .00060269  00000+0  10242-2 0  9993",
        "tle_line2": "2 66523  42.9962  28.1486 0001576 272.7983  87.2696 15.50607333  4445"
      },
      "geometry": {
        "type": "Point",
        "coordinates": [
          96.56675776741655,
          41.587703082296414
        ]
      }
    },
    {
      "type": "Feature",
      "properties": {
        "norad_id": 66524,
        "name": "STARLINK-35687",
        "group": "last-30-days",
        "lat": -30.632242745036418,
        "lon": -115.73677349753751,
        "alt_km": 446.0347674760669,
        "timestamp": "2025-12-17T19:34:06.799539+00:00",
        "meta_object_name": "STARLINK-35687",
        "meta_object_id": "2025-265J",
        "meta_epoch": "2025-12-17T03:01:25.884192",
        "meta_mean_motion": 15.40728606,
        "meta_eccentricity": 0.0001019,
        "meta_inclination": 43.0029,
        "meta_ra_of_asc_node": 28.7873,
        "meta_arg_of_pericenter": 263.2844,
        "meta_mean_anomaly": 96.7897,
        "meta_ephemeris_type": 0,
        "meta_classification_type": "U",
        "meta_norad_cat_id": 66524,
        "meta_element_set_no": 999,
        "meta_rev_at_epoch": 443,
        "meta_bstar": 0.00080546237,
        "meta_mean_motion_dot": 0.00033522,
        "meta_mean_motion_ddot": 0,
        "tle_line1": "1 66524U 25265J   25351.12599403  .00033522  00000+0  80546-3 0  9992",
        "tle_line2": "2 66524  43.0029  28.7873 0001019 263.2844  96.7897 15.40728606  4434"
      },
      "geometry": {
        "type": "Point",
        "coordinates": [
          -115.73677349753751,
          -30.632242745036418
        ]
      }
    },
    {
      "type": "Feature",
      "properties": {
        "norad_id": 66525,
        "name": "STARLINK-35975",
        "group": "last-30-days",
        "lat": -42.47924655844304,
        "lon": -54.606136202751536,
        "alt_km": 446.5722813026787,
        "timestamp": "2025-12-17T19:34:06.799553+00:00",
        "meta_object_name": "STARLINK-35975",
        "meta_object_id": "2025-265K",
        "meta_epoch": "2025-12-17T08:00:04.999680",
        "meta_mean_motion": 15.40679519,
        "meta_eccentricity": 0.00012726,
        "meta_inclination": 43.0006,
        "meta_ra_of_asc_node": 27.4699,
        "meta_arg_of_pericenter": 269.3331,
        "meta_mean_anomaly": 212.1722,
        "meta_ephemeris_type": 0,
        "meta_classification_type": "U",
        "meta_norad_cat_id": 66525,
        "meta_element_set_no": 999,
        "meta_rev_at_epoch": 573,
        "meta_bstar": 0.00019178572,
        "meta_mean_motion_dot": 7.711e-05,
        "meta_mean_motion_ddot": 0,
        "tle_line1": "1 66525U 25265K   25351.33339120  .00007711  00000+0  19179-3 0  9999",
        "tle_line2": "2 66525  43.0006  27.4699 0001272 269.3331 212.1722 15.40679519  5734"
      },
      "geometry": {
        "type": "Point",
        "coordinates": [
          -54.606136202751536,
          -42.47924655844304
        ]
      }
    },
    {
      "type": "Feature",
      "properties": {
        "norad_id": 66526,
        "name": "STARLINK-35932",
        "group": "last-30-days",
        "lat": 3.3419155078189453,
        "lon": 28.07358041759549,
        "alt_km": 443.33568367143107,
        "timestamp": "2025-12-17T19:34:06.799564+00:00",
        "meta_object_name": "STARLINK-35932",
        "meta_object_id": "2025-265L",
        "meta_epoch": "2025-12-17T08:00:04.999680",
        "meta_mean_motion": 15.40686531,
        "meta_eccentricity": 0.00013191,
        "meta_inclination": 43.0007,
        "meta_ra_of_asc_node": 27.2589,
        "meta_arg_of_pericenter": 274.3731,
        "meta_mean_anomaly": 294.2087,
        "meta_ephemeris_type": 0,
        "meta_classification_type": "U",
        "meta_norad_cat_id": 66526,
        "meta_element_set_no": 999,
        "meta_rev_at_epoch": 562,
        "meta_bstar": 0.00028264957,
        "meta_mean_motion_dot": 0.00011516,
        "meta_mean_motion_ddot": 0,
        "tle_line1": "1 66526U 25265L   25351.33339120  .00011516  00000+0  28265-3 0  9994",
        "tle_line2": "2 66526  43.0007  27.2589 0001319 274.3731 294.2087 15.40686531  5629"
      },
      "geometry": {
        "type": "Point",
        "coordinates": [
          28.07358041759549,
          3.3419155078189453
        ]
      }
    },
    {
      "type": "Feature",
      "properties": {
        "norad_id": 66527,
        "name": "STARLINK-35935",
        "group": "last-30-days",
        "lat": 42.881135134276384,
        "lon": 109.51932497607507,
        "alt_km": 408.9567615793412,
        "timestamp": "2025-12-17T19:34:06.799575+00:00",
        "meta_object_name": "STARLINK-35935",
        "meta_object_id": "2025-265M",
        "meta_epoch": "2025-12-17T03:44:20.637024",
        "meta_mean_motion": 15.50642505,
        "meta_eccentricity": 0.00019557,
        "meta_inclination": 43.0003,
        "meta_ra_of_asc_node": 28.1389,
        "meta_arg_of_pericenter": 267.7207,
        "meta_mean_anomaly": 92.3429,
        "meta_ephemeris_type": 0,
        "meta_classification_type": "U",
        "meta_norad_cat_id": 66527,
        "meta_element_set_no": 999,
        "meta_rev_at_epoch": 444,
        "meta_bstar": 0.0017106119,
        "meta_mean_motion_dot": 0.00101555,
        "meta_mean_motion_ddot": 0,
        "tle_line1": "1 66527U 25265M   25351.15579441  .00101555  00000+0  17106-2 0  9991",
        "tle_line2": "2 66527  43.0003  28.1389 0001955 267.7207  92.3429 15.50642505  4444"
      },
      "geometry": {
        "type": "Point",
        "coordinates": [
          109.51932497607507,
          42.881135134276384
        ]
      }
    },
    {
      "type": "Feature",
      "properties": {
        "norad_id": 66528,
        "name": "STARLINK-35928",
        "group": "last-30-days",
        "lat": 42.87263956177529,
        "lon": 109.3011263185991,
        "alt_km": 408.91708233887584,
        "timestamp": "2025-12-17T19:34:06.799586+00:00",
        "meta_object_name": "STARLINK-35928",
        "meta_object_id": "2025-265N",
        "meta_epoch": "2025-12-16T16:00:03.999744",
        "meta_mean_motion": 15.50522986,
        "meta_eccentricity": 0.0001582,
        "meta_inclination": 43.0011,
        "meta_ra_of_asc_node": 31.0004,
        "meta_arg_of_pericenter": 273.7707,
        "meta_mean_anomaly": 232.9641,
        "meta_ephemeris_type": 0,
        "meta_classification_type": "U",
        "meta_norad_cat_id": 66528,
        "meta_element_set_no": 999,
        "meta_rev_at_epoch": 562,
        "meta_bstar": 0.0012241896,
        "meta_mean_motion_dot": 0.00071995,
        "meta_mean_motion_ddot": 0,
        "tle_line1": "1 66528U 25265N   25350.66671296  .00071995  00000+0  12242-2 0  9998",
        "tle_line2": "2 66528  43.0011  31.0004 0001582 273.7707 232.9641 15.50522986  5628"
      },
      "geometry": {
        "type": "Point",
        "coordinates": [
          109.3011263185991,
          42.87263956177529
        ]
      }
    }
  ]
}